{
    "links": {
        "self": "http://www.neowsapp.com/rest/v1/neo/3157017?api_key=iIulBulltgU6a56xZRHN4H3l9WmuAYTsLGpBGhQ2"
    },
    "id": "3157017",
    "neo_reference_id": "3157017",
    "name": "(2003 MN)",
    "designation": "2003 MN",
    "nasa_jpl_url": "http://ssd.jpl.nasa.gov/sbdb.cgi?sstr=3157017",
    "absolute_magnitude_h": 23.8,
    "estimated_diameter": {
        "kilometers": {
            "estimated_diameter_min": 0.046190746,
            "estimated_diameter_max": 0.1032856481
        },
        "meters": {
            "estimated_diameter_min": 46.1907460282,
            "estimated_diameter_max": 103.2856480504
        },
        "miles": {
            "estimated_diameter_min": 0.0287015901,
            "estimated_diameter_max": 0.0641787064
        },
        "feet": {
            "estimated_diameter_min": 151.544447199,
            "estimated_diameter_max": 338.8636855496
        }
    },
    "is_potentially_hazardous_asteroid": false,
    "close_approach_data": [
        {
            "close_approach_date": "2003-06-23",
            "close_approach_date_full": "2003-Jun-23 08:54",
            "epoch_date_close_approach": 1056358440000,
            "relative_velocity": {
                "kilometers_per_second": "11.8857731989",
                "kilometers_per_hour": "42788.7835159925",
                "miles_per_hour": "26587.2860685899"
            },
            "miss_distance": {
                "astronomical": "0.0139937126",
                "lunar": "5.4435542014",
                "kilometers": "2093429.598352162",
                "miles": "1300796.8336653556"
            },
            "orbiting_body": "Earth"
        }
    ],
    "orbital_data": {
        "orbit_id": "7",
        "orbit_determination_date": "2017-04-06 09:14:02",
        "first_observation_date": "2003-06-22",
        "last_observation_date": "2003-06-23",
        "data_arc_in_days": 1,
        "observations_used": 24,
        "orbit_uncertainty": "8",
        "minimum_orbit_intersection": ".013798",
        "jupiter_tisserand_invariant": "3.323",
        "epoch_osculation": "2452813.5",
        "eccentricity": ".6016578408811051",
        "semi_major_axis": "2.30095598248786",
        "inclination": "2.671535586344855",
        "ascending_node_longitude": "254.3941322744756",
        "orbital_period": "1274.855297186185",
        "perihelion_distance": ".9165677741017525",
        "perihelion_argument": "59.53021730792045",
        "aphelion_distance": "3.685344190873968",
        "perihelion_time": "2452846.023329017930",
        "mean_anomaly": "350.815900069367",
        "mean_motion": ".2823849897275237",
        "equinox": "J2000",
        "orbit_class": {
            "orbit_class_type": "APO",
            "orbit_class_description": "Near-Earth asteroid orbits which cross the Earth’s orbit similar to that of 1862 Apollo",
            "orbit_class_range": "a (semi-major axis) > 1.0 AU; q (perihelion) < 1.017 AU"
        }
    },
    "is_sentry_object": false
}